CSS (TIANHE)            
1 48274U 21035A   23314.53745873  .00038222  00000+0  43552-3 0  9999
2 48274  41.4723 344.8912 0003408 103.8670 256.2548 15.61496248144714
